{"type": "FeatureCollection", "features": [ {"type": "Feature", "properties": {"norad_id": 34058, "name": "COSMOS 2251 DEB", "group": "cosmos-2251-debris", "lat": -45.94382539225692, "lon": 144.49104061955043, "alt_km": 1311.801855908935, "timestamp": "2025-12-22T18:58:53.826410+00:00", "meta": {"OBJECT_NAME": "COSMOS 2251 DEB", "OBJECT_ID": "1993-036JV", "EPOCH": "2025-12-22T03:54:21.153312", "MEAN_MOTION": 13.56090407, "ECCENTRICITY": 0.03775296, "INCLINATION": 73.9315, "RA_OF_ASC_NODE": 162.8386, "ARG_OF_PERICENTER": 156.2846, "MEAN_ANOMALY": 328.1397, "EPHEMERIS_TYPE": 0, "CLASSIFICATION_TYPE": "U", "NORAD_CAT_ID": 34058, "ELEMENT_SET_NO": 999, "REV_AT_EPOCH": 83270, "BSTAR": 0.0006713158, "MEAN_MOTION_DOT": 7.25e-06, "MEAN_MOTION_DDOT": 0}, "tle": {"line1": "1 34058U 93036JV  25356.16274483  .00000725  00000+0  67132-3 0  9992", "line2": "2 34058  73.9315 162.8386 0377529 156.2846 328.1397 13.56090407832707"}}, "geometry": {"type": "Point", "coordinates": [144.49104061955043, -45.94382539225692]}}, {"type": "Feature", "properties": {"norad_id": 34059, "name": "COSMOS 2251 DEB", "group": "cosmos-2251-debris", "lat": 66.95461648444137, "lon": -150.39769834515593, "alt_km": 721.8810919047473, "timestamp": "2025-12-22T18:58:53.826420+00:00", "meta": {"OBJECT_NAME": "COSMOS 2251 DEB", "OBJECT_ID": "1993-036JW", "EPOCH": "2025-12-22T06:13:26.988096", "MEAN_MOTION": 14.53000527, "ECCENTRICITY": 0.0018445, "INCLINATION": 74.0368, "RA_OF_ASC_NODE": 168.3172, "ARG_OF_PERICENTER": 244.751, "MEAN_ANOMALY": 289.1254, "EPHEMERIS_TYPE": 0, "CLASSIFICATION_TYPE": "U", "NORAD_CAT_ID": 34059, "ELEMENT_SET_NO": 999, "REV_AT_EPOCH": 88597, "BSTAR": 0.00077231566, "MEAN_MOTION_DOT": 3.167e-05, "MEAN_MOTION_DDOT": 0}, "tle": {"line1": "1 34059U 93036JW  25356.25934014  .00003167  00000+0  77232-3 0  9991", "line2": "2 34059  74.0368 168.3172 0018445 244.7510 289.1254 14.53000527885979"}}, "geometry": {"type": "Point", "coordinates": [-150.39769834515593, 66.95461648444137]}}, {"type": "Feature", "properties": {"norad_id": 34061, "name": "COSMOS 2251 DEB", "group": "cosmos-2251-debris", "lat": -34.06706834377154, "lon": -126.3479153631699, "alt_km": 748.2741567273988, "timestamp": "2025-12-22T18:58:53.826430+00:00", "meta": {"OBJECT_NAME": "COSMOS 2251 DEB", "OBJECT_ID": "1993-036JY", "EPOCH": "2025-12-22T03:10:38.827776", "MEAN_MOTION": 14.40375806, "ECCENTRICITY": 0.00208257, "INCLINATION": 74.0388, "RA_OF_ASC_NODE": 246.0278, "ARG_OF_PERICENTER": 321.5694, "MEAN_ANOMALY": 189.6619, "EPHEMERIS_TYPE": 0, "CLASSIFICATION_TYPE": "U", "NORAD_CAT_ID": 34061, "ELEMENT_SET_NO": 999, "REV_AT_EPOCH": 88315, "BSTAR": 0.00026251698, "MEAN_MOTION_DOT": 8.09e-06, "MEAN_MOTION_DDOT": 0}, "tle": {"line1": "1 34061U 93036JY  25356.13239384  .00000809  00000+0  26252-3 0  9995", "line2": "2 34061  74.0388 246.0278 0020825 321.5694 189.6619 14.40375806883155"}}, "geometry": {"type": "Point", "coordinates": [-126.3479153631699, -34.06706834377154]}}, {"type": "Feature", "properties": {"norad_id": 34062, "name": "COSMOS 2251 DEB", "group": "cosmos-2251-debris", "lat": 34.27033979584389, "lon": 129.51695057722324, "alt_km": 677.92095689498, "timestamp": "2025-12-22T18:58:53.826440+00:00", "meta": {"OBJECT_NAME": "COSMOS 2251 DEB", "OBJECT_ID": "1993-036JZ", "EPOCH": "2025-12-21T19:08:56.488128", "MEAN_MOTION": 14.78994852, "ECCENTRICITY": 0.00734099, "INCLINATION": 74.0286, "RA_OF_ASC_NODE": 120.2166, "ARG_OF_PERICENTER": 197.441, "MEAN_ANOMALY": 313.706, "EPHEMERIS_TYPE": 0, "CLASSIFICATION_TYPE": "U", "NORAD_CAT_ID": 34062, "ELEMENT_SET_NO": 999, "REV_AT_EPOCH": 88729, "BSTAR": 0.002347246, "MEAN_MOTION_DOT": 0.0001816, "MEAN_MOTION_DDOT": 0}, "tle": {"line1": "1 34062U 93036JZ  25355.79787602  .00018160  00000+0  23472-2 0  9997", "line2": "2 34062  74.0286 120.2166 0073409 197.4410 313.7060 14.78994852887292"}}, "geometry": {"type": "Point", "coordinates": [129.51695057722324, 34.27033979584389]}}, {"type": "Feature", "properties": {"norad_id": 34064, "name": "COSMOS 2251 DEB", "group": "cosmos-2251-debris", "lat": 9.585641080480702, "lon": -105.00644035055214, "alt_km": 742.3180991800336, "timestamp": "2025-12-22T18:58:53.826450+00:00", "meta": {"OBJECT_NAME": "COSMOS 2251 DEB", "OBJECT_ID": "1993-036KB", "EPOCH": "2025-12-21T19:56:20.625792", "MEAN_MOTION": 14.42365983, "ECCENTRICITY": 0.00223535, "INCLINATION": 74.0319, "RA_OF_ASC_NODE": 254.0025, "ARG_OF_PERICENTER": 319.2796, "MEAN_ANOMALY": 107.2455, "EPHEMERIS_TYPE": 0, "CLASSIFICATION_TYPE": "U", "NORAD_CAT_ID": 34064, "ELEMENT_SET_NO": 999, "REV_AT_EPOCH": 88273, "BSTAR": 0.00036796563, "MEAN_MOTION_DOT": 1.193e-05, "MEAN_MOTION_DDOT": 0}, "tle": {"line1": "1 34064U 93036KB  25355.83079428  .00001193  00000+0  36797-3 0  9997", "line2": "2 34064  74.0319 254.0025 0022353 319.2796 107.2455 14.42365983882730"}}, "geometry": {"type": "Point", "coordinates": [-105.00644035055214, 9.585641080480702]}}, {"type": "Feature", "properties": {"norad_id": 34065, "name": "COSMOS 2251 DEB", "group": "cosmos-2251-debris", "lat": -45.636689823353585, "lon": 76.6278603870405, "alt_km": 774.8178530360874, "timestamp": "2025-12-22T18:58:53.826460+00:00", "meta": {"OBJECT_NAME": "COSMOS 2251 DEB", "OBJECT_ID": "1993-036KC", "EPOCH": "2025-12-21T17:09:44.057664", "MEAN_MOTION": 14.38071574, "ECCENTRICITY": 0.00167339, "INCLINATION": 74.0351, "RA_OF_ASC_NODE": 241.589, "ARG_OF_PERICENTER": 337.5842, "MEAN_ANOMALY": 83.283, "EPHEMERIS_TYPE": 0, "CLASSIFICATION_TYPE": "U", "NORAD_CAT_ID": 34065, "ELEMENT_SET_NO": 999, "REV_AT_EPOCH": 88334, "BSTAR": 0.0001295422, "MEAN_MOTION_DOT": 3.67e-06, "MEAN_MOTION_DDOT": 0}, "tle": {"line1": "1 34065U 93036KC  25355.71509326  .00000367  00000+0  12954-3 0  9991", "line2": "2 34065  74.0351 241.5890 0016733 337.5842  83.2830 14.38071574883341"}}, "geometry": {"type": "Point", "coordinates": [76.6278603870405, -45.636689823353585]}}, {"type": "Feature", "properties": {"norad_id": 34070, "name": "COSMOS 2251 DEB", "group": "cosmos-2251-debris", "lat": 73.57954533041652, "lon": 173.31174123794014, "alt_km": 637.9727692024626, "timestamp": "2025-12-22T18:58:53.826470+00:00", "meta": {"OBJECT_NAME": "COSMOS 2251 DEB", "OBJECT_ID": "1993-036KH", "EPOCH": "2025-12-21T13:24:18.092736", "MEAN_MOTION": 14.7729737, "ECCENTRICITY": 0.0018155, "INCLINATION": 74.0012, "RA_OF_ASC_NODE": 98.9349, "ARG_OF_PERICENTER": 215.9122, "MEAN_ANOMALY": 159.1877, "EPHEMERIS_TYPE": 0, "CLASSIFICATION_TYPE": "U", "NORAD_CAT_ID": 34070, "ELEMENT_SET_NO": 999, "REV_AT_EPOCH": 88741, "BSTAR": 0.0022779, "MEAN_MOTION_DOT": 0.00016219, "MEAN_MOTION_DDOT": 0}, "tle": {"line1": "1 34070U 93036KH  25355.55854274  .00016219  00000+0  22779-2 0  9992", "line2": "2 34070  74.0012  98.9349 0018155 215.9122 159.1877 14.77297370887417"}}, "geometry": {"type": "Point", "coordinates": [173.31174123794014, 73.57954533041652]}}, {"type": "Feature", "properties": {"norad_id": 34114, "name": "COSMOS 2251 DEB", "group": "cosmos-2251-debris", "lat": -72.9770625988416, "lon": -86.2123027876692, "alt_km": 724.0959878788854, "timestamp": "2025-12-22T18:58:53.826480+00:00", "meta": {"OBJECT_NAME": "COSMOS 2251 DEB", "OBJECT_ID": "1993-036KK", "EPOCH": "2025-12-21T04:09:10.753632", "MEAN_MOTION": 14.56477831, "ECCENTRICITY": 0.00478914, "INCLINATION": 74.0582, "RA_OF_ASC_NODE": 27.8513, "ARG_OF_PERICENTER": 19.5405, "MEAN_ANOMALY": 45.4164, "EPHEMERIS_TYPE": 0, "CLASSIFICATION_TYPE": "U", "NORAD_CAT_ID": 34114, "ELEMENT_SET_NO": 999, "REV_AT_EPOCH": 87924, "BSTAR": 0.0010113335, "MEAN_MOTION_DOT": 4.54e-05, "MEAN_MOTION_DDOT": 0}, "tle": {"line1": "1 34114U 93036KK  25355.17304113  .00004540  00000+0  10113-2 0  9994", "line2": "2 34114  74.0582  27.8513 0047891  19.5405  45.4164 14.56477831879240"}}, "geometry": {"type": "Point", "coordinates": [-86.2123027876692, -72.9770625988416]}}, {"type": "Feature", "properties": {"norad_id": 34115, "name": "COSMOS 2251 DEB", "group": "cosmos-2251-debris", "lat": 44.35790296355341, "lon": 25.834596290619448, "alt_km": 626.6022327976525, "timestamp": "2025-12-22T18:58:53.826490+00:00", "meta": {"OBJECT_NAME": "COSMOS 2251 DEB", "OBJECT_ID": "1993-036KL", "EPOCH": "2025-12-22T00:32:02.247072", "MEAN_MOTION": 14.79601673, "ECCENTRICITY": 0.00289334, "INCLINATION": 74.0054, "RA_OF_ASC_NODE": 223.6386, "ARG_OF_PERICENTER": 44.3783, "MEAN_ANOMALY": 315.9704, "EPHEMERIS_TYPE": 0, "CLASSIFICATION_TYPE": "U", "NORAD_CAT_ID": 34115, "ELEMENT_SET_NO": 999, "REV_AT_EPOCH": 89549, "BSTAR": 0.00082188257, "MEAN_MOTION_DOT": 6.174e-05, "MEAN_MOTION_DDOT": 0}, "tle": {"line1": "1 34115U 93036KL  25356.02224823  .00006174  00000+0  82188-3 0  9996", "line2": "2 34115  74.0054 223.6386 0028933  44.3783 315.9704 14.79601673895498"}}, "geometry": {"type": "Point", "coordinates": [25.834596290619448, 44.35790296355341]}}, {"type": "Feature", "properties": {"norad_id": 34116, "name": "COSMOS 2251 DEB", "group": "cosmos-2251-debris", "lat": -34.85463174116014, "lon": -4.686331910114092, "alt_km": 713.9511763204555, "timestamp": "2025-12-22T18:58:53.826500+00:00", "meta": {"OBJECT_NAME": "COSMOS 2251 DEB", "OBJECT_ID": "1993-036KM", "EPOCH": "2025-12-21T22:43:55.543296", "MEAN_MOTION": 14.53027637, "ECCENTRICITY": 0.00118306, "INCLINATION": 74.0396, "RA_OF_ASC_NODE": 165.4082, "ARG_OF_PERICENTER": 241.5718, "MEAN_ANOMALY": 243.1834, "EPHEMERIS_TYPE": 0, "CLASSIFICATION_TYPE": "U", "NORAD_CAT_ID": 34116, "ELEMENT_SET_NO": 999, "REV_AT_EPOCH": 88620, "BSTAR": 0.00077325065, "MEAN_MOTION_DOT": 3.169e-05, "MEAN_MOTION_DDOT": 0}, "tle": {"line1": "1 34116U 93036KM  25355.94717064  .00003169  00000+0  77325-3 0  9999", "line2": "2 34116  74.0396 165.4082 0011830 241.5718 243.1834 14.53027637886200"}}, "geometry": {"type": "Point", "coordinates": [-4.686331910114092, -34.85463174116014]}}]}